
# Worst residual: 2.48 km
# MJD 57993.000000 (2017 Aug 28  0:00)
XV902A4
1 99999U 00000    17240.49919926  .00000000  00000-0  00000-0 0    01
2 99999 020.8958 023.9747 8309454 216.3048 171.4284 00.48519672    07

# Worst residual: 12.51 km
# MJD 57994.000000 (2017 Aug 29  0:00)
XV902A4
1 99999U 00000    17241.49919926  .00000000  00000-0  00000-0 0    02
2 99999 020.9046 023.9648 8309194 216.3320 346.0883 00.48504765    02

# Worst residual: 5.51 km
# MJD 57995.000000 (2017 Aug 30  0:00)
XV902A4
1 99999U 00000    17242.49919926  .00000000  00000-0  00000-0 0    03
2 99999 020.9039 023.9429 8309659 216.3767 160.7260 00.48518384    04

# Worst residual: 8.40 km
# MJD 57996.000000 (2017 Aug 31  0:00)
XV902A4
1 99999U 00000    17243.49919926  .00000000  00000-0  00000-0 0    04
2 99999 020.9144 023.9387 8309697 216.4014 335.3728 00.48515625    06

# Worst residual: 5.79 km
# MJD 57997.000000 (2017 Sep  1  0:00)
XV902A4
1 99999U 00000    17244.49919926  .00000000  00000-0  00000-0 0    05
2 99999 020.9141 023.9158 8310498 216.4508 150.0037 00.48518296    00

# Worst residual: 6.74 km
# MJD 57998.000000 (2017 Sep  2  0:00)
XV902A4
1 99999U 00000    17245.49919926  .00000000  00000-0  00000-0 0    06
2 99999 020.9257 023.9157 8309973 216.4765 324.6176 00.48525179    09

# Worst residual: 3.56 km
# MJD 57999.000000 (2017 Sep  3  0:00)
XV902A4
1 99999U 00000    17246.49919926  .00000000  00000-0  00000-0 0    07
2 99999 020.9254 023.8915 8311075 216.5271 139.2536 00.48522752    00

# Worst residual: 11.01 km
# MJD 58000.000000 (2017 Sep  4  0:00)
XV902A4
1 99999U 00000    17247.49919926  .00000000  00000-0  00000-0 0    08
2 99999 020.9372 023.8935 8309003 216.5492 313.8574 00.48523730    05

# Worst residual: 4.75 km
# MJD 58001.000000 (2017 Sep  5  0:00)
XV902A4
1 99999U 00000    17248.49919926  .00000000  00000-0  00000-0 0    09
2 99999 020.9368 023.8654 8310755 216.5975 128.4943 00.48529215    04

# Worst residual: 9.83 km
# MJD 58002.000000 (2017 Sep  6  0:00)
XV902A4
1 99999U 00000    17249.49919926  .00000000  00000-0  00000-0 0    00
2 99999 020.9476 023.8663 8308014 216.6138 303.1411 00.48517100    03

# Worst residual: 10.59 km
# MJD 58003.000000 (2017 Sep  7  0:00)
XV902A4
1 99999U 00000    17250.49919926  .00000000  00000-0  00000-0 0    02
2 99999 020.9489 023.8364 8310409 216.6587 117.7527 00.48524874    07

# Worst residual: 7.84 km
# MJD 58004.000000 (2017 Sep  8  0:00)
XV902A4
1 99999U 00000    17251.49919926  .00000000  00000-0  00000-0 0    03
2 99999 020.9626 023.8440 8310833 216.6676 292.4330 00.48516430    07

# Worst residual: 11.90 km
# MJD 58005.000000 (2017 Sep  9  0:00)
XV902A4
1 99999U 00000    17252.49919926  .00000000  00000-0  00000-0 0    04
2 99999 020.9656 023.8144 8312537 216.7289 107.0146 00.48505076    05

# Worst residual: 12.57 km
# MJD 58006.000000 (2017 Sep 10  0:00)
XV902A4
1 99999U 00000    17253.49919926  .00000000  00000-0  00000-0 0    05
2 99999 020.9871 023.8384 8316782 216.7393 281.5638 00.48512077    05

# Worst residual: 4.74 km
# MJD 58007.000000 (2017 Sep 11  0:00)
XV902A4
1 99999U 00000    17254.49919926  .00000000  00000-0  00000-0 0    06
2 99999 020.9895 023.8129 8317299 216.8288 096.1609 00.48503075    02

# Worst residual: 6.16 km
# MJD 58008.000000 (2017 Sep 12  0:00)
XV902A4
1 99999U 00000    17255.49919926  .00000000  00000-0  00000-0 0    07
2 99999 021.0082 023.8306 8316116 216.8623 270.5743 00.48496863    02

# Worst residual: 8.84 km
# MJD 58009.000000 (2017 Sep 13  0:00)
XV902A4
1 99999U 00000    17256.49919926  .00000000  00000-0  00000-0 0    08
2 99999 021.0097 023.8080 8316048 216.9421 085.1678 00.48518011    05

# Worst residual: 11.38 km
# MJD 58010.000000 (2017 Sep 14  0:00)
XV902A4
1 99999U 00000    17257.49919926  .00000000  00000-0  00000-0 0    09
2 99999 021.0184 023.8044 8311710 216.9762 259.7628 00.48507854    08

# Worst residual: 5.71 km
# MJD 58011.000000 (2017 Sep 15  0:00)
XV902A4
1 99999U 00000    17258.49919926  .00000000  00000-0  00000-0 0    00
2 99999 021.0228 023.7821 8309485 217.0242 074.3451 00.48517371    00

# Worst residual: 7.08 km
# MJD 58012.000000 (2017 Sep 16  0:00)
XV902A4
1 99999U 00000    17259.49919926  .00000000  00000-0  00000-0 0    01
2 99999 021.0286 023.7747 8310705 217.0464 249.0231 00.48528270    01

# Worst residual: 11.29 km
# MJD 58013.000000 (2017 Sep 17  0:00)
XV902A4
1 99999U 00000    17260.49919926  .00000000  00000-0  00000-0 0    03
2 99999 021.0353 023.7549 8308255 217.0820 063.6488 00.48523205    06

# Worst residual: 3.00 km
# MJD 58014.000000 (2017 Sep 18  0:00)
XV902A4
1 99999U 00000    17261.49919926  .00000000  00000-0  00000-0 0    04
2 99999 021.0403 023.7463 8311662 217.1116 238.2538 00.48527451    05

# Worst residual: 12.19 km
# MJD 58015.000000 (2017 Sep 19  0:00)
XV902A4
1 99999U 00000    17262.49919926  .00000000  00000-0  00000-0 0    05
2 99999 021.0485 023.7310 8310344 217.1521 052.9027 00.48530751    03

# Worst residual: 5.23 km
# MJD 58016.000000 (2017 Sep 20  0:00)
XV902A4
1 99999U 00000    17263.49919926  .00000000  00000-0  00000-0 0    06
2 99999 021.0499 023.7160 8312183 217.1955 227.4707 00.48519120    06

# Worst residual: 9.30 km
# MJD 58017.000000 (2017 Sep 21  0:00)
XV902A4
1 99999U 00000    17264.49919926  .00000000  00000-0  00000-0 0    07
2 99999 021.0587 023.7022 8311577 217.2401 042.1117 00.48524225    03

# Worst residual: 6.70 km
# MJD 58018.000000 (2017 Sep 22  0:00)
XV902A4
1 99999U 00000    17265.49919926  .00000000  00000-0  00000-0 0    08
2 99999 021.0568 023.6815 8311888 217.2862 216.7142 00.48516029    07

# Worst residual: 13.77 km
# MJD 58019.000000 (2017 Sep 23  0:00)
XV902A4
1 99999U 00000    17266.49919926  .00000000  00000-0  00000-0 0    09
2 99999 021.0651 023.6667 8311682 217.3285 031.3503 00.48508692    06

# Worst residual: 4.75 km
# MJD 58020.000000 (2017 Sep 24  0:00)
XV902A4
1 99999U 00000    17267.49919926  .00000000  00000-0  00000-0 0    00
2 99999 021.0632 023.6454 8311666 217.3695 205.9940 00.48517160    00

# Worst residual: 14.87 km
# MJD 58021.000000 (2017 Sep 25  0:00)
XV902A4
1 99999U 00000    17268.49919926  .00000000  00000-0  00000-0 0    01
2 99999 021.0716 023.6315 8311859 217.4080 020.6342 00.48498951    06

# Worst residual: 2.18 km
# MJD 58022.000000 (2017 Sep 26  0:00)
XV902A4
1 99999U 00000    17269.49919926  .00000000  00000-0  00000-0 0    02
2 99999 021.0709 023.6116 8312181 217.4456 195.2873 00.48518091    09
